IRIDIUM 112             
1 41925U 17003J   24030.65502667  .00000329  00000+0  11028-3 0  9996
2 41925  86.3938  91.3067 0002320  89.8697 270.2765 14.34218911368785
IRIDIUM 111             
1 41926U 17003K   24030.71210689  .00000245  00000+0  80563-4 0  9992
2 41926  86.3940  91.3344 0002159  85.8184 274.3259 14.34219615368778
IRIDIUM 113             
1 42803U 17039A   24030.90137932  .00000113  00000+0  33176-4 0  9998
2 42803  86.4008 325.0111 0002257  80.0862 280.0589 14.34217407346736
IRIDIUM 123             
1 42804U 17039B   24030.94285656  .00000177  00000+0  56078-4 0  9996
2 42804  86.3997 356.4780 0002213  83.2331 276.9117 14.34218826345502
IRIDIUM 120             
1 42805U 17039C   24030.89503618  .00000410  00000+0  13936-3 0  9997
2 42805  86.3995 324.9093 0002136  86.1347 274.0093 14.34218376346728
IRIDIUM 115             
1 42806U 17039D   24030.88845991  .00000608  00000+0  17480-3 0  9997
2 42806  86.4534 324.9162 0002238  78.8927 281.2525 14.43265891349021
IRIDIUM 118             
1 42807U 17039E   24030.90479609  .00000368  00000+0  12418-3 0  9999
2 42807  86.3996 356.4981 0002278  84.4321 275.7134 14.34216658345495
IRIDIUM 117             
1 42808U 17039F   24030.92382954  .00000128  00000+0  38528-4 0  9993
2 42808  86.3998 356.4546 0002121  84.6450 275.4988 14.34218348345523
